{
  "type": "FeatureCollection",
  "features": [
    {
      "type": "Feature",
      "properties": {
        "norad_id": 24946,
        "name": "IRIDIUM 33",
        "group": "iridium-33-debris",
        "lat": 69.23176974082998,
        "lon": 73.75462573320875,
        "alt_km": 769.181713452328,
        "timestamp": "2025-12-22T09:53:37.785192+00:00",
        "meta_object_name": "IRIDIUM 33",
        "meta_object_id": "1997-051C",
        "meta_epoch": "2025-12-22T02:52:36.107904",
        "meta_mean_motion": 14.35043534,
        "meta_eccentricity": 0.0008155,
        "meta_inclination": 86.3861,
        "meta_ra_of_asc_node": 64.2842,
        "meta_arg_of_pericenter": 169.3592,
        "meta_mean_anomaly": 190.7778,
        "meta_ephemeris_type": 0,
        "meta_classification_type": "U",
        "meta_norad_cat_id": 24946,
        "meta_element_set_no": 999,
        "meta_rev_at_epoch": 47969,
        "meta_bstar": 0.00010298,
        "meta_mean_motion_dot": 3.13e-06,
        "meta_mean_motion_ddot": 0,
        "tle_line1": "1 24946U 97051C   25356.11986236  .00000313  00000+0  10298-3 0  9993",
        "tle_line2": "2 24946  86.3861  64.2842 0008155 169.3592 190.7778 14.35043534479695"
      },
      "geometry": {
        "type": "Point",
        "coordinates": [
          73.75462573320875,
          69.23176974082998
        ]
      }
    },
    {
      "type": "Feature",
      "properties": {
        "norad_id": 33773,
        "name": "IRIDIUM 33 DEB",
        "group": "iridium-33-debris",
        "lat": -47.30032967842326,
        "lon": 52.578510523201466,
        "alt_km": 763.6771563787834,
        "timestamp": "2025-12-22T09:53:37.785217+00:00",
        "meta_object_name": "IRIDIUM 33 DEB",
        "meta_object_id": "1997-051L",
        "meta_epoch": "2025-12-22T03:27:28.205280",
        "meta_mean_motion": 14.43275908,
        "meta_eccentricity": 0.0013157,
        "meta_inclination": 86.4,
        "meta_ra_of_asc_node": 56.6042,
        "meta_arg_of_pericenter": 119.239,
        "meta_mean_anomaly": 241.0128,
        "meta_ephemeris_type": 0,
        "meta_classification_type": "U",
        "meta_norad_cat_id": 33773,
        "meta_element_set_no": 999,
        "meta_rev_at_epoch": 88483,
        "meta_bstar": 0.0002661,
        "meta_mean_motion_dot": 9.16e-06,
        "meta_mean_motion_ddot": 0,
        "tle_line1": "1 33773U 97051L   25356.14407645  .00000916  00000+0  26610-3 0  9990",
        "tle_line2": "2 33773  86.4000  56.6042 0013157 119.2390 241.0128 14.43275908884830"
      },
      "geometry": {
        "type": "Point",
        "coordinates": [
          52.578510523201466,
          -47.30032967842326
        ]
      }
    },
    {
      "type": "Feature",
      "properties": {
        "norad_id": 33775,
        "name": "IRIDIUM 33 DEB",
        "group": "iridium-33-debris",
        "lat": -26.1091336234195,
        "lon": 43.637390755956325,
        "alt_km": 768.802581470537,
        "timestamp": "2025-12-22T09:53:37.785232+00:00",
        "meta_object_name": "IRIDIUM 33 DEB",
        "meta_object_id": "1997-051N",
        "meta_epoch": "2025-12-21T14:37:50.869056",
        "meta_mean_motion": 14.41485837,
        "meta_eccentricity": 0.0015088,
        "meta_inclination": 86.3627,
        "meta_ra_of_asc_node": 45.7665,
        "meta_arg_of_pericenter": 128.1119,
        "meta_mean_anomaly": 3.4564,
        "meta_ephemeris_type": 0,
        "meta_classification_type": "U",
        "meta_norad_cat_id": 33775,
        "meta_element_set_no": 999,
        "meta_rev_at_epoch": 88268,
        "meta_bstar": 0.00024418,
        "meta_mean_motion_dot": 8.13e-06,
        "meta_mean_motion_ddot": 0,
        "tle_line1": "1 33775U 97051N   25355.60961654  .00000813  00000+0  24418-3 0  9997",
        "tle_line2": "2 33775  86.3627  45.7665 0015088 128.1119   3.4564 14.41485837882686"
      },
      "geometry": {
        "type": "Point",
        "coordinates": [
          43.637390755956325,
          -26.1091336234195
        ]
      }
    },
    {
      "type": "Feature",
      "properties": {
        "norad_id": 33776,
        "name": "IRIDIUM 33 DEB",
        "group": "iridium-33-debris",
        "lat": 86.24799146775925,
        "lon": -176.84050073962797,
        "alt_km": 752.7701528509124,
        "timestamp": "2025-12-22T09:53:37.785244+00:00",
        "meta_object_name": "IRIDIUM 33 DEB",
        "meta_object_id": "1997-051P",
        "meta_epoch": "2025-12-22T04:33:30.007296",
        "meta_mean_motion": 14.38251333,
        "meta_eccentricity": 0.0015379,
        "meta_inclination": 86.4034,
        "meta_ra_of_asc_node": 76.8074,
        "meta_arg_of_pericenter": 160.3153,
        "meta_mean_anomaly": 220.5711,
        "meta_ephemeris_type": 0,
        "meta_classification_type": "U",
        "meta_norad_cat_id": 33776,
        "meta_element_set_no": 999,
        "meta_rev_at_epoch": 88218,
        "meta_bstar": 0.00026404,
        "meta_mean_motion_dot": 8.23e-06,
        "meta_mean_motion_ddot": 0,
        "tle_line1": "1 33776U 97051P   25356.18993064  .00000823  00000+0  26404-3 0  9990",
        "tle_line2": "2 33776  86.4034  76.8074 0015379 160.3153 220.5711 14.38251333882187"
      },
      "geometry": {
        "type": "Point",
        "coordinates": [
          -176.84050073962797,
          86.24799146775925
        ]
      }
    },
    {
      "type": "Feature",
      "properties": {
        "norad_id": 33777,
        "name": "IRIDIUM 33 DEB",
        "group": "iridium-33-debris",
        "lat": 55.784939416987186,
        "lon": -154.35051266078437,
        "alt_km": 701.4630303520244,
        "timestamp": "2025-12-22T09:53:37.785256+00:00",
        "meta_object_name": "IRIDIUM 33 DEB",
        "meta_object_id": "1997-051Q",
        "meta_epoch": "2025-12-22T04:22:35.014080",
        "meta_mean_motion": 14.55675322,
        "meta_eccentricity": 0.0005971,
        "meta_inclination": 86.3773,
        "meta_ra_of_asc_node": 31.0955,
        "meta_arg_of_pericenter": 208.3162,
        "meta_mean_anomaly": 151.7722,
        "meta_ephemeris_type": 0,
        "meta_classification_type": "U",
        "meta_norad_cat_id": 33777,
        "meta_element_set_no": 999,
        "meta_rev_at_epoch": 88671,
        "meta_bstar": 0.00077164,
        "meta_mean_motion_dot": 3.391e-05,
        "meta_mean_motion_ddot": 0,
        "tle_line1": "1 33777U 97051Q   25356.18234970  .00003391  00000+0  77164-3 0  9997",
        "tle_line2": "2 33777  86.3773  31.0955 0005971 208.3162 151.7722 14.55675322886715"
      },
      "geometry": {
        "type": "Point",
        "coordinates": [
          -154.35051266078437,
          55.784939416987186
        ]
      }
    },
    {
      "type": "Feature",
      "properties": {
        "norad_id": 33850,
        "name": "IRIDIUM 33 DEB",
        "group": "iridium-33-debris",
        "lat": -21.60767191997821,
        "lon": 24.567813624960916,
        "alt_km": 765.0506746795518,
        "timestamp": "2025-12-22T09:53:37.785267+00:00",
        "meta_object_name": "IRIDIUM 33 DEB",
        "meta_object_id": "1997-051T",
        "meta_epoch": "2025-12-21T12:54:25.325568",
        "meta_mean_motion": 14.4216572,
        "meta_eccentricity": 0.00130293,
        "meta_inclination": 86.3408,
        "meta_ra_of_asc_node": 26.3962,
        "meta_arg_of_pericenter": 134.7554,
        "meta_mean_anomaly": 346.6938,
        "meta_ephemeris_type": 0,
        "meta_classification_type": "U",
        "meta_norad_cat_id": 33850,
        "meta_element_set_no": 999,
        "meta_rev_at_epoch": 88279,
        "meta_bstar": 0.00030357281,
        "meta_mean_motion_dot": 1.019e-05,
        "meta_mean_motion_ddot": 0,
        "tle_line1": "1 33850U 97051T   25355.53779312  .00001019  00000+0  30357-3 0  9999",
        "tle_line2": "2 33850  86.3408  26.3962 0013029 134.7554 346.6938 14.42165720882797"
      },
      "geometry": {
        "type": "Point",
        "coordinates": [
          24.567813624960916,
          -21.60767191997821
        ]
      }
    },
    {
      "type": "Feature",
      "properties": {
        "norad_id": 33853,
        "name": "IRIDIUM 33 DEB",
        "group": "iridium-33-debris",
        "lat": -53.39534742865676,
        "lon": -19.83557630278616,
        "alt_km": 928.3883861678332,
        "timestamp": "2025-12-22T09:53:37.785278+00:00",
        "meta_object_name": "IRIDIUM 33 DEB",
        "meta_object_id": "1997-051W",
        "meta_epoch": "2025-12-20T22:14:35.888928",
        "meta_mean_motion": 13.9910315,
        "meta_eccentricity": 0.0207332,
        "meta_inclination": 85.9999,
        "meta_ra_of_asc_node": 346.2208,
        "meta_arg_of_pericenter": 210.5493,
        "meta_mean_anomaly": 176.3282,
        "meta_ephemeris_type": 0,
        "meta_classification_type": "U",
        "meta_norad_cat_id": 33853,
        "meta_element_set_no": 999,
        "meta_rev_at_epoch": 85460,
        "meta_bstar": 0.0010168,
        "meta_mean_motion_dot": 1.786e-05,
        "meta_mean_motion_ddot": 0,
        "tle_line1": "1 33853U 97051W   25354.92680427  .00001786  00000+0  10168-2 0  9990",
        "tle_line2": "2 33853  85.9999 346.2208 0207332 210.5493 176.3282 13.99103150854603"
      },
      "geometry": {
        "type": "Point",
        "coordinates": [
          -19.83557630278616,
          -53.39534742865676
        ]
      }
    }
  ]
}